CCSDS_OMM_VERS = 2.0
CREATION_DATE  = 
ORIGINATOR     = 

OBJECT_NAME    = STARLINK-36992
OBJECT_ID      = 2026-049H
CENTER_NAME    = EARTH
REF_FRAME      = TEME
TIME_SYSTEM    = UTC
MEAN_ELEMENT_THEORY = SGP/SGP4

EPOCH          = 2026-04-04T19:17:53.846016
MEAN_MOTION    = 15.80775819
ECCENTRICITY   = .000093
INCLINATION    = 97.2855
RA_OF_ASC_NODE = 115.4070
ARG_OF_PERICENTER = 80.9818
MEAN_ANOMALY   = 279.1555

EPHEMERIS_TYPE = 0
CLASSIFICATION_TYPE = U
NORAD_CAT_ID   = 68149
ELEMENT_SET_NO = 999
REV_AT_EPOCH   = 353
BSTAR          = .39543E-3
MEAN_MOTION_DOT = .76125E-3
MEAN_MOTION_DDOT = 0

CCSDS_OMM_VERS = 2.0
CREATION_DATE  = 
ORIGINATOR     = 

OBJECT_NAME    = STARLINK-37060
OBJECT_ID      = 2026-049J
CENTER_NAME    = EARTH
REF_FRAME      = TEME
TIME_SYSTEM    = UTC
MEAN_ELEMENT_THEORY = SGP/SGP4

EPOCH          = 2026-04-04T19:16:48.935424
MEAN_MOTION    = 15.80774727
ECCENTRICITY   = .0001286
INCLINATION    = 97.2856
RA_OF_ASC_NODE = 115.4081
ARG_OF_PERICENTER = 79.1298
MEAN_ANOMALY   = 281.0115

EPHEMERIS_TYPE = 0
CLASSIFICATION_TYPE = U
NORAD_CAT_ID   = 68150
ELEMENT_SET_NO = 999
REV_AT_EPOCH   = 353
BSTAR          = .3986E-3
MEAN_MOTION_DOT = .76737E-3
MEAN_MOTION_DDOT = 0

CCSDS_OMM_VERS = 2.0
CREATION_DATE  = 
ORIGINATOR     = 

OBJECT_NAME    = STARLINK-37073
OBJECT_ID      = 2026-049K
CENTER_NAME    = EARTH
REF_FRAME      = TEME
TIME_SYSTEM    = UTC
MEAN_ELEMENT_THEORY = SGP/SGP4

EPOCH          = 2026-04-04T20:00:01.999008
MEAN_MOTION    = 15.75106815
ECCENTRICITY   = .0001461
INCLINATION    = 97.2844
RA_OF_ASC_NODE = 115.4090
ARG_OF_PERICENTER = 112.5593
MEAN_ANOMALY   = 345.5631

EPHEMERIS_TYPE = 0
CLASSIFICATION_TYPE = U
NORAD_CAT_ID   = 68151
ELEMENT_SET_NO = 999
REV_AT_EPOCH   = 482
BSTAR          = .7173E-3
MEAN_MOTION_DOT = .107833E-2
MEAN_MOTION_DDOT = 0

CCSDS_OMM_VERS = 2.0
CREATION_DATE  = 
ORIGINATOR     = 

OBJECT_NAME    = STARLINK-37049
OBJECT_ID      = 2026-049L
CENTER_NAME    = EARTH
REF_FRAME      = TEME
TIME_SYSTEM    = UTC
MEAN_ELEMENT_THEORY = SGP/SGP4

EPOCH          = 2026-04-04T20:00:01.999008
MEAN_MOTION    = 15.75133174
ECCENTRICITY   = .0001243
INCLINATION    = 97.2848
RA_OF_ASC_NODE = 115.4285
ARG_OF_PERICENTER = 102.2229
MEAN_ANOMALY   = 41.8936

EPHEMERIS_TYPE = 0
CLASSIFICATION_TYPE = U
NORAD_CAT_ID   = 68152
ELEMENT_SET_NO = 999
REV_AT_EPOCH   = 482
BSTAR          = .43284E-3
MEAN_MOTION_DOT = .64763E-3
MEAN_MOTION_DDOT = 0

CCSDS_OMM_VERS = 2.0
CREATION_DATE  = 
ORIGINATOR     = 

OBJECT_NAME    = STARLINK-37072
OBJECT_ID      = 2026-049M
CENTER_NAME    = EARTH
REF_FRAME      = TEME
TIME_SYSTEM    = UTC
MEAN_ELEMENT_THEORY = SGP/SGP4

EPOCH          = 2026-04-04T19:40:13.052928
MEAN_MOTION    = 15.75144934
ECCENTRICITY   = .0001414
INCLINATION    = 97.2845
RA_OF_ASC_NODE = 115.3860
ARG_OF_PERICENTER = 96.5173
MEAN_ANOMALY   = 263.6253

EPHEMERIS_TYPE = 0
CLASSIFICATION_TYPE = U
NORAD_CAT_ID   = 68153
ELEMENT_SET_NO = 999
REV_AT_EPOCH   = 353
BSTAR          = .55592E-3
MEAN_MOTION_DOT = .83441E-3
MEAN_MOTION_DDOT = 0

CCSDS_OMM_VERS = 2.0
CREATION_DATE  = 
ORIGINATOR     = 

OBJECT_NAME    = STARLINK-36241
OBJECT_ID      = 2026-049N
CENTER_NAME    = EARTH
REF_FRAME      = TEME
TIME_SYSTEM    = UTC
MEAN_ELEMENT_THEORY = SGP/SGP4

EPOCH          = 2026-04-04T19:57:29.725920
MEAN_MOTION    = 15.75144385
ECCENTRICITY   = .0001595
INCLINATION    = 97.2844
RA_OF_ASC_NODE = 115.3685
ARG_OF_PERICENTER = 90.5024
MEAN_ANOMALY   = 269.6424

EPHEMERIS_TYPE = 0
CLASSIFICATION_TYPE = U
NORAD_CAT_ID   = 68154
ELEMENT_SET_NO = 999
REV_AT_EPOCH   = 353
BSTAR          = .4736E-3
MEAN_MOTION_DOT = .7096E-3
MEAN_MOTION_DDOT = 0

CCSDS_OMM_VERS = 2.0
CREATION_DATE  = 
ORIGINATOR     = 

OBJECT_NAME    = STARLINK-37048
OBJECT_ID      = 2026-049P
CENTER_NAME    = EARTH
REF_FRAME      = TEME
TIME_SYSTEM    = UTC
MEAN_ELEMENT_THEORY = SGP/SGP4

EPOCH          = 2026-04-04T19:09:14.438592
MEAN_MOTION    = 15.80767792
ECCENTRICITY   = .0001549
INCLINATION    = 97.2856
RA_OF_ASC_NODE = 115.4149
ARG_OF_PERICENTER = 63.2279
MEAN_ANOMALY   = 296.9148

EPHEMERIS_TYPE = 0
CLASSIFICATION_TYPE = U
NORAD_CAT_ID   = 68155
ELEMENT_SET_NO = 999
REV_AT_EPOCH   = 353
BSTAR          = .33368E-3
MEAN_MOTION_DOT = .64103E-3
MEAN_MOTION_DDOT = 0

CCSDS_OMM_VERS = 2.0
CREATION_DATE  = 
ORIGINATOR     = 

OBJECT_NAME    = STARLINK-36313
OBJECT_ID      = 2026-049Q
CENTER_NAME    = EARTH
REF_FRAME      = TEME
TIME_SYSTEM    = UTC
MEAN_ELEMENT_THEORY = SGP/SGP4

EPOCH          = 2026-04-04T19:10:19.414848
MEAN_MOTION    = 15.80763246
ECCENTRICITY   = .0001616
INCLINATION    = 97.2857
RA_OF_ASC_NODE = 115.4135
ARG_OF_PERICENTER = 64.0951
MEAN_ANOMALY   = 296.0484

EPHEMERIS_TYPE = 0
CLASSIFICATION_TYPE = U
NORAD_CAT_ID   = 68156
ELEMENT_SET_NO = 999
REV_AT_EPOCH   = 353
BSTAR          = .26576E-3
MEAN_MOTION_DOT = .50939E-3
MEAN_MOTION_DDOT = 0

CCSDS_OMM_VERS = 2.0
CREATION_DATE  = 
ORIGINATOR     = 

OBJECT_NAME    = STARLINK-37064
OBJECT_ID      = 2026-049R
CENTER_NAME    = EARTH
REF_FRAME      = TEME
TIME_SYSTEM    = UTC
MEAN_ELEMENT_THEORY = SGP/SGP4

EPOCH          = 2026-04-04T19:12:29.153088
MEAN_MOTION    = 15.80773575
ECCENTRICITY   = .0000746
INCLINATION    = 97.2856
RA_OF_ASC_NODE = 115.4114
ARG_OF_PERICENTER = 88.8510
MEAN_ANOMALY   = 271.2844

EPHEMERIS_TYPE = 0
CLASSIFICATION_TYPE = U
NORAD_CAT_ID   = 68157
ELEMENT_SET_NO = 999
REV_AT_EPOCH   = 353
BSTAR          = .38699E-3
MEAN_MOTION_DOT = .74474E-3
MEAN_MOTION_DDOT = 0

CCSDS_OMM_VERS = 2.0
CREATION_DATE  = 
ORIGINATOR     = 

OBJECT_NAME    = STARLINK-37069
OBJECT_ID      = 2026-049S
CENTER_NAME    = EARTH
REF_FRAME      = TEME
TIME_SYSTEM    = UTC
MEAN_ELEMENT_THEORY = SGP/SGP4

EPOCH          = 2026-04-04T19:52:24.860928
MEAN_MOTION    = 15.75139863
ECCENTRICITY   = .0001654
INCLINATION    = 97.2844
RA_OF_ASC_NODE = 115.3737
ARG_OF_PERICENTER = 110.7973
MEAN_ANOMALY   = 249.3470

EPHEMERIS_TYPE = 0
CLASSIFICATION_TYPE = U
NORAD_CAT_ID   = 68158
ELEMENT_SET_NO = 999
REV_AT_EPOCH   = 353
BSTAR          = .48837E-3
MEAN_MOTION_DOT = .73182E-3
MEAN_MOTION_DDOT = 0

CCSDS_OMM_VERS = 2.0
CREATION_DATE  = 
ORIGINATOR     = 

OBJECT_NAME    = STARLINK-37053
OBJECT_ID      = 2026-049T
CENTER_NAME    = EARTH
REF_FRAME      = TEME
TIME_SYSTEM    = UTC
MEAN_ELEMENT_THEORY = SGP/SGP4

EPOCH          = 2026-04-04T20:00:01.999008
MEAN_MOTION    = 15.75156703
ECCENTRICITY   = .0001381
INCLINATION    = 97.2854
RA_OF_ASC_NODE = 115.4441
ARG_OF_PERICENTER = 104.0480
MEAN_ANOMALY   = 76.0498

EPHEMERIS_TYPE = 0
CLASSIFICATION_TYPE = U
NORAD_CAT_ID   = 68159
ELEMENT_SET_NO = 999
REV_AT_EPOCH   = 482
BSTAR          = .37392E-3
MEAN_MOTION_DOT = .55928E-3
MEAN_MOTION_DDOT = 0

CCSDS_OMM_VERS = 2.0
CREATION_DATE  = 
ORIGINATOR     = 

OBJECT_NAME    = STARLINK-36306
OBJECT_ID      = 2026-049U
CENTER_NAME    = EARTH
REF_FRAME      = TEME
TIME_SYSTEM    = UTC
MEAN_ELEMENT_THEORY = SGP/SGP4

EPOCH          = 2026-04-04T19:46:49.291104
MEAN_MOTION    = 15.75147231
ECCENTRICITY   = .000105
INCLINATION    = 97.2846
RA_OF_ASC_NODE = 115.3792
ARG_OF_PERICENTER = 105.4332
MEAN_ANOMALY   = 254.7050

EPHEMERIS_TYPE = 0
CLASSIFICATION_TYPE = U
NORAD_CAT_ID   = 68160
ELEMENT_SET_NO = 999
REV_AT_EPOCH   = 353
BSTAR          = .37898E-3
MEAN_MOTION_DOT = .56667E-3
MEAN_MOTION_DDOT = 0

